{"fetched_at":"2026-07-10T18:08:20.795Z","source":"https://celestrak.org/NORAD/elements/gp.php?NAME=LEGION&FORMAT=JSON","constellation":"maxar-legion","records":[{"OBJECT_NAME":"LEGION 1","OBJECT_ID":"2024-081A","EPOCH":"2026-07-10T06:02:03.697152","CLASSIFICATION_TYPE":"U","MEAN_MOTION":15.168237,"ECCENTRICITY":0.00077352,"INCLINATION":97.5012,"RA_OF_ASC_NODE":268.8636,"ARG_OF_PERICENTER":290.4136,"MEAN_ANOMALY":69.6266,"EPHEMERIS_TYPE":0,"NORAD_CAT_ID":59625,"ELEMENT_SET_NO":999,"REV_AT_EPOCH":12103,"BSTAR":0.00011734227,"MEAN_MOTION_DOT":0.0000224,"MEAN_MOTION_DDOT":0},{"OBJECT_NAME":"LEGION 2","OBJECT_ID":"2024-081B","EPOCH":"2026-07-10T06:45:42.846624","CLASSIFICATION_TYPE":"U","MEAN_MOTION":15.16802832,"ECCENTRICITY":0.00099697,"INCLINATION":97.5012,"RA_OF_ASC_NODE":268.9904,"ARG_OF_PERICENTER":252.8231,"MEAN_ANOMALY":107.1911,"EPHEMERIS_TYPE":0,"NORAD_CAT_ID":59626,"ELEMENT_SET_NO":999,"REV_AT_EPOCH":12104,"BSTAR":0.00012567773,"MEAN_MOTION_DOT":0.00002404,"MEAN_MOTION_DDOT":0},{"OBJECT_NAME":"LEGION 3","OBJECT_ID":"2024-146A","EPOCH":"2026-07-10T06:16:32.089728","CLASSIFICATION_TYPE":"U","MEAN_MOTION":15.15636351,"ECCENTRICITY":0.00086458,"INCLINATION":45.0015,"RA_OF_ASC_NODE":266.8334,"ARG_OF_PERICENTER":308.2343,"MEAN_ANOMALY":51.7757,"EPHEMERIS_TYPE":0,"NORAD_CAT_ID":60452,"ELEMENT_SET_NO":999,"REV_AT_EPOCH":10552,"BSTAR":0.00012138599,"MEAN_MOTION_DOT":0.00002084,"MEAN_MOTION_DDOT":0},{"OBJECT_NAME":"LEGION 4","OBJECT_ID":"2024-146B","EPOCH":"2026-07-09T22:21:42.172704","CLASSIFICATION_TYPE":"U","MEAN_MOTION":15.16216301,"ECCENTRICITY":0.00114513,"INCLINATION":45.0026,"RA_OF_ASC_NODE":0.4677,"ARG_OF_PERICENTER":78.8692,"MEAN_ANOMALY":281.3474,"EPHEMERIS_TYPE":0,"NORAD_CAT_ID":60453,"ELEMENT_SET_NO":999,"REV_AT_EPOCH":10432,"BSTAR":0.00017329106,"MEAN_MOTION_DOT":0.00003144,"MEAN_MOTION_DDOT":0},{"OBJECT_NAME":"LEGION 5","OBJECT_ID":"2025-025A","EPOCH":"2026-07-10T03:08:15.869472","CLASSIFICATION_TYPE":"U","MEAN_MOTION":15.16053585,"ECCENTRICITY":0.00085634,"INCLINATION":44.9999,"RA_OF_ASC_NODE":178.3764,"ARG_OF_PERICENTER":277.1485,"MEAN_ANOMALY":82.842,"EPHEMERIS_TYPE":0,"NORAD_CAT_ID":62900,"ELEMENT_SET_NO":999,"REV_AT_EPOCH":7797,"BSTAR":0.00010300105,"MEAN_MOTION_DOT":0.00001751,"MEAN_MOTION_DDOT":0},{"OBJECT_NAME":"LEGION 6","OBJECT_ID":"2025-025B","EPOCH":"2026-07-10T03:05:19.970304","CLASSIFICATION_TYPE":"U","MEAN_MOTION":15.1566877,"ECCENTRICITY":0.00107352,"INCLINATION":45.0014,"RA_OF_ASC_NODE":87.5194,"ARG_OF_PERICENTER":250.8009,"MEAN_ANOMALY":109.1708,"EPHEMERIS_TYPE":0,"NORAD_CAT_ID":62901,"ELEMENT_SET_NO":999,"REV_AT_EPOCH":7911,"BSTAR":0.00013493497,"MEAN_MOTION_DOT":0.0000235,"MEAN_MOTION_DDOT":0}]}
